CSS (TIANHE)            
1 48274U 21035A   24080.51625794  .00039874  00000+0  41920-3 0  9998
2 48274  41.4666 265.0666 0009896 218.7959 141.2171 15.63492984165211
